ONEWEB-0184             
1 48211U 21031B   26157.64777249  .00000052  00000+0  10487-3 0  9999
2 48211  87.8964 291.8006 0001136 115.2225 244.9023 13.14503094246900
ONEWEB-0179             
1 48212U 21031C   26157.63598365  .00000192  00000+0  57980-4 0  9994
2 48212  87.8980 289.5125 0218832 291.9898  65.8172 14.25516351247545
ONEWEB-0180             
1 48213U 21031D   26157.65094948  .00000131  00000+0  31987-3 0  9996
2 48213  87.8958 291.7962 0001956 113.6342 246.4993 13.14502798246832
ONEWEB-0218             
1 48214U 21031E   26157.67314824  .00000305  00000+0  78864-3 0  9995
2 48214  87.8950 291.7904 0001317 125.5244 234.6008 13.14502114246990
ONEWEB-0209             
1 48215U 21031F   26157.66204052  .00000300  00000+0  77533-3 0  9993
2 48215  87.8951 291.8109 0001988 105.8277 254.3072 13.14505145246998
ONEWEB-0198             
1 48216U 21031G   26157.64632951  .00000020  00000+0  18399-4 0  9990
2 48216  87.8946 291.8141 0001801 113.7546 246.3773 13.14502634247103
ONEWEB-0189             
1 48217U 21031H   26157.12605755  .00000242  00000+0  61830-3 0  9999
2 48217  87.8958 291.9028 0001784 110.6617 249.4704 13.14502242246772
ONEWEB-0196             
1 48218U 21031J   26157.63667725 -.00000099  00000+0 -30170-3 0  9996
2 48218  87.8957 291.8102 0001899 104.8884 255.2456 13.14502719246848
ONEWEB-0183             
1 48219U 21031K   26157.61130804  .00000041  00000+0  77351-4 0  9996
2 48219  87.8958 291.8135 0002048  98.1115 262.0247 13.14502588246933
ONEWEB-0185             
1 48220U 21031L   26157.63745916 -.00000084  00000+0 -25979-3 0  9993
2 48220  87.8963 291.8011 0002254 105.1064 255.0315 13.14502970246860
ONEWEB-0187             
1 48221U 21031M   26157.69362926 -.00000013  00000+0 -70684-4 0  9992
2 48221  87.8950 291.8062 0001999 106.2653 253.8697 13.14501836246885
ONEWEB-0192             
1 48222U 21031N   26157.66362544  .00000263  00000+0  67547-3 0  9994
2 48222  87.8951 291.8027 0001773 102.4571 257.6757 13.14504718246796
ONEWEB-0219             
1 48223U 21031P   26157.64300875 -.00000047  00000+0 -16126-3 0  9991
2 48223  87.8953 291.7988 0002055 105.6535 254.4822 13.14504504246996
ONEWEB-0202             
1 48224U 21031Q   26157.39563943 -.00000157  00000+0 -45668-3 0  9996
2 48224  87.8956 291.8593 0001477 118.8408 241.2871 13.14502566246944
ONEWEB-0204             
1 48225U 21031R   26157.65808944  .00000262  00000+0  67334-3 0  9998
2 48225  87.8956 291.8023 0002196  97.6044 262.5336 13.14502233246877
ONEWEB-0205             
1 48226U 21031S   26157.63349912 -.00000199  00000+0 -57137-3 0  9993
2 48226  87.8966 291.7994 0001954 108.2187 251.9155 13.14504289246888
